[{"OBJECT_ID":"2018-079EE","OBJECT_NAME":"ATLAS 5 CENTAUR DEB","NORAD_CAT_ID":"47244","OBJECT_TYPE":"DEBRIS","PERIOD":"812.510","INCLINATION":"11.2125","ECCENTRICITY":"0.47097670","MEAN_MOTION":"1.77228528","TLE_LINE1":"1 47244U 18079EE  21271.07691711 -.00000133  00000-0  00000+0 0  9998","TLE_LINE2":"2 47244  11.2125 196.8979 4709767   5.9986 358.0551  1.77228528  5364"},{"OBJECT_ID":"2018-079EF","OBJECT_NAME":"ATLAS 5 CENTAUR DEB","NORAD_CAT_ID":"47245","OBJECT_TYPE":"DEBRIS","PERIOD":"769.157","INCLINATION":"11.1719","ECCENTRICITY":"0.49347630","MEAN_MOTION":"1.87217920","TLE_LINE1":"1 47245U 18079EF  21268.06119177 -.00000119  00000-0  00000-0 0  9990","TLE_LINE2":"2 47245  11.1719 203.5375 4934763  17.7366 354.6129  1.87217920  5614"},{"OBJECT_ID":"2018-079EH","OBJECT_NAME":"ATLAS 5 CENTAUR DEB","NORAD_CAT_ID":"47249","OBJECT_TYPE":"DEBRIS","PERIOD":"788.403","INCLINATION":"11.4837","ECCENTRICITY":"0.47882130","MEAN_MOTION":"1.82647795","TLE_LINE1":"1 47249U 18079EH  21271.49543655 -.00000136  00000-0  00000+0 0  9995","TLE_LINE2":"2 47249  11.4837 185.7142 4788213  25.7020 351.8340  1.82647795  5535"},{"OBJECT_ID":"2018-079EJ","OBJECT_NAME":"ATLAS 5 CENTAUR DEB","NORAD_CAT_ID":"47250","OBJECT_TYPE":"DEBRIS","PERIOD":"742.453","INCLINATION":"11.1767","ECCENTRICITY":"0.47267650","MEAN_MOTION":"1.93951604","TLE_LINE1":"1 47250U 18079EJ  21270.37857425 -.00000107  00000-0  00000+0 0  9994","TLE_LINE2":"2 47250  11.1767 197.1313 4726765  27.3581 351.0869  1.93951604  5860"},{"OBJECT_ID":"2011-037NM","OBJECT_NAME":"FREGAT DEB","NORAD_CAT_ID":"47330","OBJECT_TYPE":"DEBRIS","PERIOD":"128.351","INCLINATION":"51.4198","ECCENTRICITY":"0.18908170","MEAN_MOTION":"11.21927548","TLE_LINE1":"1 47330U 11037NM  21271.36396842  .00006539  00000-0  18894-2 0  9998","TLE_LINE2":"2 47330  51.4198 261.8656 1890817 229.1340 112.9841 11.21927548 29777"},{"OBJECT_ID":"2011-037NP","OBJECT_NAME":"FREGAT DEB","NORAD_CAT_ID":"47332","OBJECT_TYPE":"DEBRIS","PERIOD":"128.190","INCLINATION":"51.4228","ECCENTRICITY":"0.19162750","MEAN_MOTION":"11.23331446","TLE_LINE1":"1 47332U 11037NP  21271.62511260  .00000219  00000-0  71397-4 0  9990","TLE_LINE2":"2 47332  51.4228 247.8610 1916275 242.9286  96.3586 11.23331446 29887"},{"OBJECT_ID":"2011-037NS","OBJECT_NAME":"FREGAT DEB","NORAD_CAT_ID":"47335","OBJECT_TYPE":"DEBRIS","PERIOD":"135.387","INCLINATION":"50.7049","ECCENTRICITY":"0.19802430","MEAN_MOTION":"10.63616743","TLE_LINE1":"1 47335U 11037NS  21271.47819206  .00031274  00000-0  35898-1 0  9995","TLE_LINE2":"2 47335  50.7049  95.1338 1980243  77.5394 303.8668 10.63616743  5983"},{"OBJECT_ID":"2011-037NU","OBJECT_NAME":"FREGAT DEB","NORAD_CAT_ID":"47337","OBJECT_TYPE":"DEBRIS","PERIOD":"128.848","INCLINATION":"51.5539","ECCENTRICITY":"0.16078920","MEAN_MOTION":"11.17599391","TLE_LINE1":"1 47337U 11037NU  21265.14776557 -.00011151  00000-0 -18638-1 0  9992","TLE_LINE2":"2 47337  51.5539 304.0728 1607892 181.3267 178.2938 11.17599391 28339"},{"OBJECT_ID":"2018-079EL","OBJECT_NAME":"ATLAS 5 CENTAUR DEB","NORAD_CAT_ID":"47339","OBJECT_TYPE":"DEBRIS","PERIOD":"745.782","INCLINATION":"11.1097","ECCENTRICITY":"0.44372320","MEAN_MOTION":"1.93085922","TLE_LINE1":"1 47339U 18079EL  21270.20337637 -.00000118  00000-0  00000-0 0  9995","TLE_LINE2":"2 47339  11.1097 199.9961 4437232  17.0902 353.9854  1.93085922  5152"},{"OBJECT_ID":"2018-079EN","OBJECT_NAME":"ATLAS 5 CENTAUR DEB","NORAD_CAT_ID":"47341","OBJECT_TYPE":"DEBRIS","PERIOD":"836.146","INCLINATION":"11.2389","ECCENTRICITY":"0.47268900","MEAN_MOTION":"1.72218639","TLE_LINE1":"1 47341U 18079EN  21271.19614942 -.00000145  00000-0  00000-0 0  9994","TLE_LINE2":"2 47341  11.2389 202.1900 4726890 352.1550   2.4450  1.72218639  4611"},{"OBJECT_ID":"2018-079EP","OBJECT_NAME":"ATLAS 5 CENTAUR DEB","NORAD_CAT_ID":"47342","OBJECT_TYPE":"DEBRIS","PERIOD":"718.482","INCLINATION":"11.8251","ECCENTRICITY":"0.49584350","MEAN_MOTION":"2.00422547","TLE_LINE1":"1 47342U 18079EP  21250.22476871 -.00000064  00000-0  00000-0 0  9993","TLE_LINE2":"2 47342  11.8251 196.6975 4958435  32.4260 350.0174  2.00422547  4941"},{"OBJECT_ID":"1965-108DS","OBJECT_NAME":"TITAN 3C TRANSTAGE DEB","NORAD_CAT_ID":"47713","OBJECT_TYPE":"DEBRIS","PERIOD":"319.179","INCLINATION":"26.8641","ECCENTRICITY":"0.55435280","MEAN_MOTION":"4.51158188","TLE_LINE1":"1 47713U 65108DS  21270.39911613  .00000121  00000-0  33511-3 0  9997","TLE_LINE2":"2 47713  26.8641 296.8356 5543528 336.8926   5.6467  4.51158188129370"},{"OBJECT_ID":"1977-047T","OBJECT_NAME":"COSMOS 917 DEB","NORAD_CAT_ID":"48089","OBJECT_TYPE":"DEBRIS","PERIOD":"718.964","INCLINATION":"71.5235","ECCENTRICITY":"0.61666000","MEAN_MOTION":"2.00288062","TLE_LINE1":"1 48089U 77047T   21270.83293998 -.00000535  00000-0  00000-0 0  9991","TLE_LINE2":"2 48089  71.5235 153.0072 6166600 192.0797 140.8937  2.00288062 57554"},{"OBJECT_ID":"1978-066J","OBJECT_NAME":"COSMOS 1024 DEB","NORAD_CAT_ID":"48090","OBJECT_TYPE":"DEBRIS","PERIOD":"717.250","INCLINATION":"62.6281","ECCENTRICITY":"0.68841310","MEAN_MOTION":"2.00766834","TLE_LINE1":"1 48090U 78066J   21268.27430633 -.00000761  00000-0  00000-0 0  9990","TLE_LINE2":"2 48090  62.6281 222.4084 6884131  39.8989 354.2098  2.00766834 57488"},{"OBJECT_ID":"1977-047U","OBJECT_NAME":"SL-6 DEB","NORAD_CAT_ID":"48258","OBJECT_TYPE":"DEBRIS","PERIOD":"673.907","INCLINATION":"67.1296","ECCENTRICITY":"0.63910230","MEAN_MOTION":"2.13679210","TLE_LINE1":"1 48258U 77047U   21259.11182602 -.00000053  00000-0  00000-0 0  9991","TLE_LINE2":"2 48258  67.1296 232.8157 6391023 327.9089   5.5278  2.13679210 61072"},{"OBJECT_ID":"1979-077J","OBJECT_NAME":"COSMOS 1124 DEB","NORAD_CAT_ID":"48259","OBJECT_TYPE":"DEBRIS","PERIOD":"706.442","INCLINATION":"65.4050","ECCENTRICITY":"0.69587940","MEAN_MOTION":"2.03838528","TLE_LINE1":"1 48259U 79077J   21271.27205605 -.00000744  00000-0  00000-0 0  9994","TLE_LINE2":"2 48259  65.4050  57.3191 6958794  22.2559 311.5382  2.03838528188389"},{"OBJECT_ID":"1979-104AL","OBJECT_NAME":"ARIANA 1 DEB","NORAD_CAT_ID":"48260","OBJECT_TYPE":"DEBRIS","PERIOD":"210.091","INCLINATION":"23.0169","ECCENTRICITY":"0.42842840","MEAN_MOTION":"6.85418662","TLE_LINE1":"1 48260U 79104AL  21271.33420235  .00002456  00000-0  32680-3 0  9995","TLE_LINE2":"2 48260  23.0169 268.7073 4284284  89.9237 317.6360  6.85418662551683"},{"OBJECT_ID":"1980-063E","OBJECT_NAME":"SL-6 DEB *","NORAD_CAT_ID":"48261","OBJECT_TYPE":"DEBRIS","PERIOD":"680.965","INCLINATION":"62.5370","ECCENTRICITY":"0.70909670","MEAN_MOTION":"2.11464609","TLE_LINE1":"1 48261U 80063E   21272.17225104  .00000496  00000-0 -39152-2 0  9996","TLE_LINE2":"2 48261  62.5370 225.9665 7090967 280.1576  13.0138  2.11464609 60597"},{"OBJECT_ID":"1980-063F","OBJECT_NAME":"SL-6 DEB *","NORAD_CAT_ID":"48262","OBJECT_TYPE":"DEBRIS","PERIOD":"702.135","INCLINATION":"62.6161","ECCENTRICITY":"0.70984520","MEAN_MOTION":"2.05088677","TLE_LINE1":"1 48262U 80063F   21270.61208311  .00000810  00000-0 -54318-2 0  9996","TLE_LINE2":"2 48262  62.6161 232.4412 7098452 276.7112 300.7666  2.05088677189015"},{"OBJECT_ID":"1981-016M","OBJECT_NAME":"COSMOS 1247 DEB","NORAD_CAT_ID":"48263","OBJECT_TYPE":"DEBRIS","PERIOD":"732.917","INCLINATION":"66.6532","ECCENTRICITY":"0.65092110","MEAN_MOTION":"1.96475153","TLE_LINE1":"1 48263U 81016M   21271.11790361  .00000502  00000-0  00000-0 0  9997","TLE_LINE2":"2 48263  66.6532 118.6213 6509211  13.2168 358.0354  1.96475153 61062"},{"OBJECT_ID":"1981-031P","OBJECT_NAME":"COSMOS 1261 DEB","NORAD_CAT_ID":"48264","OBJECT_TYPE":"DEBRIS","PERIOD":"715.158","INCLINATION":"62.9164","ECCENTRICITY":"0.68337660","MEAN_MOTION":"2.01353986","TLE_LINE1":"1 48264U 81031P   21270.95209149  .00000194  00000-0  00000-0 0  9992","TLE_LINE2":"2 48264  62.9164 238.3444 6833766  40.8004 359.0339  2.01353986 57705"},{"OBJECT_ID":"1981-123E","OBJECT_NAME":"SL-6 DEB","NORAD_CAT_ID":"48265","OBJECT_TYPE":"DEBRIS","PERIOD":"656.275","INCLINATION":"62.6152","ECCENTRICITY":"0.71076660","MEAN_MOTION":"2.19420199","TLE_LINE1":"1 48265U 81123E   21272.22776486 -.00000028  00000-0  00000+0 0  9996","TLE_LINE2":"2 48265  62.6152 323.1726 7107666 257.9523  71.4847  2.19420199140349"},{"OBJECT_ID":"1982-045E","OBJECT_NAME":"COSMOS 1367 DEB","NORAD_CAT_ID":"48266","OBJECT_TYPE":"DEBRIS","PERIOD":"711.826","INCLINATION":"64.5042","ECCENTRICITY":"0.68984120","MEAN_MOTION":"2.02296691","TLE_LINE1":"1 48266U 82045E   21268.26878961  .00000791  00000-0  00000+0 0  9997","TLE_LINE2":"2 48266  64.5042 287.7264 6898412  13.9854 358.2389  2.02296691 12438"},{"OBJECT_ID":"1981-057G","OBJECT_NAME":"ARIANE 1 DEB","NORAD_CAT_ID":"48343","OBJECT_TYPE":"DEBRIS","PERIOD":"508.278","INCLINATION":"10.3762","ECCENTRICITY":"0.67336690","MEAN_MOTION":"2.83309320","TLE_LINE1":"1 48343U 81057G   21271.03930411  .00001092  00000-0  54730-2 0  9990","TLE_LINE2":"2 48343  10.3762 114.9802 6733669 130.5571  10.0319  2.83309320 81137"},{"OBJECT_ID":"1983-070M","OBJECT_NAME":"COSMOS 1481 DEB","NORAD_CAT_ID":"48345","OBJECT_TYPE":"DEBRIS","PERIOD":"721.396","INCLINATION":"64.9385","ECCENTRICITY":"0.73230650","MEAN_MOTION":"1.99613029","TLE_LINE1":"1 48345U 83070M   21271.31894274 -.00000284  00000-0 -55573-2 0  9996","TLE_LINE2":"2 48345  64.9385 272.6734 7323065 348.8756   1.1559  1.99613029 57215"},{"OBJECT_ID":"1983-105C","OBJECT_NAME":"ARIANE 1 DEB","NORAD_CAT_ID":"48346","OBJECT_TYPE":"DEBRIS","PERIOD":"363.314","INCLINATION":"8.4924","ECCENTRICITY":"0.58685500","MEAN_MOTION":"3.96351134","TLE_LINE1":"1 48346U 83105C   21271.37527917 -.00000028  00000-0 -16645-3 0  9993","TLE_LINE2":"2 48346   8.4924  98.6851 5868550  13.5465 346.7186  3.96351134113771"},{"OBJECT_ID":"1984-081G","OBJECT_NAME":"ARIANE 3 DEB","NORAD_CAT_ID":"48347","OBJECT_TYPE":"DEBRIS","PERIOD":"692.079","INCLINATION":"5.1899","ECCENTRICITY":"0.70961350","MEAN_MOTION":"2.08068732","TLE_LINE1":"1 48347U 84081G   21272.06933542 -.00000335  00000-0  00000+0 0  9994","TLE_LINE2":"2 48347   5.1899 162.1140 7096135  55.5117 352.3408  2.08068732 59780"}]